STARLINK-32296          
1 61524U 24183R   26068.47391007 -.00000565  00000+0 -69443-5 0  9997
2 61524  53.1599 143.1375 0001074  85.5353 274.5770 15.30190017 79620
TEVEL2-3                
1 63218U 25052J   26068.64540225  .00020365  00000+0  69446-3 0  9991
2 63218  97.3994 324.7775 0004761 105.7353 254.4413 15.30377031 54855
